CTC1_L_00124016-03
1 80166U 24202KH  26070.40832176  .00000000  00000+0  00000-0 0  9996
2 80166  65.0000 180.0000 0000000   0.0000   0.0000 14.24551792    14
CTC1_L_00124016-04
1 80167U 22921CI  26070.40832176  .00000000  00000+0  00000-0 0  9993
2 80167  65.0000 180.0000 0000000   0.0000  90.0000 14.24551792    14
CTC1_L_00124017-01
1 80168U 24893SU  26070.40832176  .00000000  00000+0  00000-0 0  9994
2 80168  65.0000 192.0000 0000000   0.0000 192.0000 14.24551792    11
CTC1_L_00124017-02
1 80169U 24251MF  26070.40832176  .00000000  00000+0  00000-0 0  9993
2 80169  65.0000 192.0000 0000000   0.0000 282.0000 14.24551792    12
CTC1_L_00124017-03
1 80170U 22577GD  26070.40832176  .00000000  00000+0  00000-0 0  9994
2 80170  65.0000 192.0000 0000000   0.0000  12.0000 14.24551792    15
CTC1_L_00124017-04
1 80171U 26019FH  26070.40832176  .00000000  00000+0  00000-0 0  9990
2 80171  65.0000 192.0000 0000000   0.0000 102.0000 14.24551792    16
CTC1_L_00124018-01
1 80172U 24831QD  26070.40832176  .00000000  00000+0  00000-0 0  9991
2 80172  65.0000 204.0000 0000000   0.0000 204.0000 14.24551792    14
CTC1_L_00124018-02
1 80173U 24461LK  26070.40832176  .00000000  00000+0  00000-0 0  9991
2 80173  65.0000 204.0000 0000000   0.0000 294.0000 14.24551792    14
CTC1_L_00124018-03
1 80174U 25334RB  26070.40832176  .00000000  00000+0  00000-0 0  9992
2 80174  65.0000 204.0000 0000000   0.0000  24.0000 14.24551792    16
CTC1_L_00124018-04
1 80175U 23804SE  26070.40832176  .00000000  00000+0  00000-0 0  9993
2 80175  65.0000 204.0000 0000000   0.0000 114.0000 14.24551792    17
CTC1_L_00124019-01
1 80176U 24925XB  26070.40832176  .00000000  00000+0  00000-0 0  9999
2 80176  65.0000 216.0000 0000000   0.0000 216.0000 14.24551792    14
CTC1_L_00124019-02
1 80177U 24874TO  26070.40832176  .00000000  00000+0  00000-0 0  9993
2 80177  65.0000 216.0000 0000000   0.0000 306.0000 14.24551792    15
CTC1_L_00124019-03
1 80178U 26017BZ  26070.40832176  .00000000  00000+0  00000-0 0  9995
2 80178  65.0000 216.0000 0000000   0.0000  36.0000 14.24551792    16
CTC1_L_00124019-04
1 80179U 25673J   26070.40832176  .00000000  00000+0  00000-0 0  9993
2 80179  65.0000 216.0000 0000000   0.0000 126.0000 14.24551792    17
CTC1_L_00124020-01
1 80180U 22624RQ  26070.40832176  .00000000  00000+0  00000-0 0  9998
2 80180  65.0000 228.0000 0000000   0.0000 228.0000 14.24551792    15
CTC1_L_00124020-02
1 80181U 24848AZ  26070.40832176  .00000000  00000+0  00000-0 0  9999
2 80181  65.0000 228.0000 0000000   0.0000 318.0000 14.24551792    16
CTC1_L_00124020-03
1 80182U 26441U   26070.40832176  .00000000  00000+0  00000-0 0  9991
2 80182  65.0000 228.0000 0000000   0.0000  48.0000 14.24551792    17
CTC1_L_00124020-04
1 80183U 24794SG  26070.40832176  .00000000  00000+0  00000-0 0  9991
2 80183  65.0000 228.0000 0000000   0.0000 138.0000 14.24551792    18
CTC1_L_00124021-01
1 80184U 24106FY  26070.40832176  .00000000  00000+0  00000-0 0  9999
2 80184  65.0000 240.0000 0000000   0.0000 240.0000 14.24551792    17
CTC1_L_00124021-02
1 80185U 23829AE  26070.40832176  .00000000  00000+0  00000-0 0  9991
2 80185  65.0000 240.0000 0000000   0.0000 330.0000 14.24551792    18
CTC1_L_00124021-03
1 80186U 23196ID  26070.40832176  .00000000  00000+0  00000-0 0  9999
2 80186  65.0000 240.0000 0000000   0.0000  60.0000 14.24551792    19
CTC1_L_00124021-04
1 80187U 25582ZK  26070.40832176  .00000000  00000+0  00000-0 0  9991
2 80187  65.0000 240.0000 0000000   0.0000 150.0000 14.24551792    10
CTC1_L_00124022-01
1 80188U 23493ZV  26070.40832176  .00000000  00000+0  00000-0 0  9991
2 80188  65.0000 252.0000 0000000   0.0000 252.0000 14.24551792    17
CTC1_L_00124022-02
1 80189U 25822HM  26070.40832176  .00000000  00000+0  00000-0 0  9990
2 80189  65.0000 252.0000 0000000   0.0000 342.0000 14.24551792    18
CTC1_L_00124022-03
1 80190U 26970OQ  26070.40832176  .00000000  00000+0  00000-0 0  9997
2 80190  65.0000 252.0000 0000000   0.0000  72.0000 14.24551792    10
CTC1_L_00124022-04
1 80191U 26398TD  26070.40832176  .00000000  00000+0  00000-0 0  9992
2 80191  65.0000 252.0000 0000000   0.0000 162.0000 14.24551792    11
CTC1_L_00124023-01
1 80192U 22584WJ  26070.40832176  .00000000  00000+0  00000-0 0  9996
2 80192  65.0000 264.0000 0000000   0.0000 264.0000 14.24551792    18
CTC1_L_00124023-02
1 80193U 22494CT  26070.40832176  .00000000  00000+0  00000-0 0  9997
2 80193  65.0000 264.0000 0000000   0.0000 354.0000 14.24551792    19
CTC1_L_00124023-03
1 80194U 24373XO  26070.40832176  .00000000  00000+0  00000-0 0  9996
2 80194  65.0000 264.0000 0000000   0.0000  84.0000 14.24551792    10
CTC1_L_00124023-04
1 80195U 23531LK  26070.40832176  .00000000  00000+0  00000-0 0  9992
2 80195  65.0000 264.0000 0000000   0.0000 174.0000 14.24551792    11
CTC1_L_00124024-01
1 80196U 23445LE  26070.40832176  .00000000  00000+0  00000-0 0  9997
2 80196  65.0000 276.0000 0000000   0.0000 276.0000 14.24551792    18
CTC1_L_00124024-02
1 80197U 25805FG  26070.40832176  .00000000  00000+0  00000-0 0  9990
2 80197  65.0000 276.0000 0000000   0.0000   6.0000 14.24551792    10
CTC1_L_00124024-03
1 80198U 24945SB  26070.40832176  .00000000  00000+0  00000-0 0  9995
2 80198  65.0000 276.0000 0000000   0.0000  96.0000 14.24551792    10
CTC1_L_00124024-04
1 80199U 26640TI  26070.40832176  .00000000  00000+0  00000-0 0  9990
2 80199  65.0000 276.0000 0000000   0.0000 186.0000 14.24551792    11
CTC1_L_00124025-01
1 80200U 25932OH  26070.40832176  .00000000  00000+0  00000-0 0  9996
2 80200  65.0000 288.0000 0000000   0.0000 288.0000 14.24551792    10
CTC1_L_00124025-02
1 80201U 22042PM  26070.40832176  .00000000  00000+0  00000-0 0  9996
2 80201  65.0000 288.0000 0000000   0.0000  18.0000 14.24551792    12
CTC1_L_00124025-03
1 80202U 24718QB  26070.40832176  .00000000  00000+0  00000-0 0  9999
2 80202  65.0000 288.0000 0000000   0.0000 108.0000 14.24551792    13
CTC1_L_00124025-04
1 80203U 24286IL  26070.40832176  .00000000  00000+0  00000-0 0  9990
2 80203  65.0000 288.0000 0000000   0.0000 198.0000 14.24551792    13
CTC1_L_00124026-01
1 80204U 23083KB  26070.40832176  .00000000  00000+0  00000-0 0  9995
2 80204  65.0000 300.0000 0000000   0.0000 300.0000 14.24551792    14
CTC1_L_00124026-02
1 80205U 24993OY  26070.40832176  .00000000  00000+0  00000-0 0  9997
2 80205  65.0000 300.0000 0000000   0.0000  30.0000 14.24551792    15
CTC1_L_00124026-03
1 80206U 24141PX  26070.40832176  .00000000  00000+0  00000-0 0  9993
2 80206  65.0000 300.0000 0000000   0.0000 120.0000 14.24551792    16
CTC1_L_00124026-04
1 80207U 24595AN  26070.40832176  .00000000  00000+0  00000-0 0  9997
2 80207  65.0000 300.0000 0000000   0.0000 210.0000 14.24551792    17
CTC1_L_00124027-01
1 80208U 22903UT  26070.40832176  .00000000  00000+0  00000-0 0  9999
2 80208  65.0000 312.0000 0000000   0.0000 312.0000 14.24551792    14
CTC1_L_00124027-02
1 80209U 23763OJ  26070.40832176  .00000000  00000+0  00000-0 0  9995
2 80209  65.0000 312.0000 0000000   0.0000  42.0000 14.24551792    15
CTC1_L_00124027-03
1 80210U 23356NQ  26070.40832176  .00000000  00000+0  00000-0 0  9995
2 80210  65.0000 312.0000 0000000   0.0000 132.0000 14.24551792    17
CTC1_L_00124027-04
1 80211U 24545IT  26070.40832176  .00000000  00000+0  00000-0 0  9997
2 80211  65.0000 312.0000 0000000   0.0000 222.0000 14.24551792    18
CTC1_L_00124028-01
1 80212U 26600OU  26070.40832176  .00000000  00000+0  00000-0 0  9992
2 80212  65.0000 324.0000 0000000   0.0000 324.0000 14.24551792    15
CTC1_L_00124028-02
1 80213U 23906NF  26070.40832176  .00000000  00000+0  00000-0 0  9999
2 80213  65.0000 324.0000 0000000   0.0000  54.0000 14.24551792    16
CTC1_L_00124028-03
1 80214U 22900CZ  26070.40832176  .00000000  00000+0  00000-0 0  9993
2 80214  65.0000 324.0000 0000000   0.0000 144.0000 14.24551792    17
CTC1_L_00124028-04
1 80215U 25265RB  26070.40832176  .00000000  00000+0  00000-0 0  9991
2 80215  65.0000 324.0000 0000000   0.0000 234.0000 14.24551792    18
CTC1_L_00124029-01
1 80216U 25948HZ  26070.40832176  .00000000  00000+0  00000-0 0  9990
2 80216  65.0000 336.0000 0000000   0.0000 336.0000 14.24551792    15
CTC1_L_00124029-02
1 80217U 24796CN  26070.40832176  .00000000  00000+0  00000-0 0  9991
2 80217  65.0000 336.0000 0000000   0.0000  66.0000 14.24551792    16
CTC1_L_00124029-03
1 80218U 25849OA  26070.40832176  .00000000  00000+0  00000-0 0  9992
2 80218  65.0000 336.0000 0000000   0.0000 156.0000 14.24551792    17
CTC1_L_00124029-04
1 80219U 22146VS  26070.40832176  .00000000  00000+0  00000-0 0  9990
2 80219  65.0000 336.0000 0000000   0.0000 246.0000 14.24551792    18
CTC1_L_00124030-01
1 80220U 24804PN  26070.40832176  .00000000  00000+0  00000-0 0  9995
2 80220  65.0000 348.0000 0000000   0.0000 348.0000 14.24551792    16
CTC1_L_00124030-02
1 80221U 24772KJ  26070.40832176  .00000000  00000+0  00000-0 0  9990
2 80221  65.0000 348.0000 0000000   0.0000  78.0000 14.24551792    17
CTC1_L_00124030-03
1 80222U 22436OA  26070.40832176  .00000000  00000+0  00000-0 0  9996
2 80222  65.0000 348.0000 0000000   0.0000 168.0000 14.24551792    18
CTC1_L_00124030-04
1 80223U 24595FX  26070.40832176  .00000000  00000+0  00000-0 0  9995
2 80223  65.0000 348.0000 0000000   0.0000 258.0000 14.24551792    19
